{
  "type": "FeatureCollection",
  "features": [
    {
      "type": "Feature",
      "id": "DEMO-CADASTRAL-parcel-101",
      "geometry": {
        "type": "Polygon",
        "coordinates": [
          [
            [
              79.41999999019215,
              13.680000001950903
            ],
            [
              79.4199999904306,
              13.680000002902846
            ],
            [
              79.41999999076121,
              13.680000003826834
            ],
            [
              79.41999999118079,
              13.680000004713968
            ],
            [
              79.4199999916853,
              13.680000005555701
            ],
            [
              79.4199999922699,
              13.680000006343933
            ],
            [
              79.41999999292894,
              13.680000007071067
            ],
            [
              79.41999999365606,
              13.680000007730104
            ],
            [
              79.4199999944443,
              13.680000008314696
            ],
            [
              79.41999999528603,
              13.680000008819212
            ],
            [
              79.41999999617316,
              13.680000009238794
            ],
            [
              79.41999999709715,
              13.680000009569403
            ],
            [
              79.4199999980491,
              13.680000009807852
            ],
            [
              79.41999999901984,
              13.680000009951847
            ],
            [
              79.42,
              13.68000001
            ],
            [
              79.4208,
              13.68000001
            ],
            [
              79.42079999901983,
              13.680000009951847
            ],
            [
              79.42079999804909,
              13.680000009807852
            ],
            [
              79.42079999709715,
              13.680000009569403
            ],
            [
              79.42079999617316,
              13.680000009238794
            ],
            [
              79.42079999528603,
              13.680000008819212
            ],
            [
              79.4207999944443,
              13.680000008314696
            ],
            [
              79.42079999365606,
              13.680000007730104
            ],
            [
              79.42079999292893,
              13.680000007071067
            ],
            [
              79.42079999226989,
              13.680000006343933
            ],
            [
              79.4207999916853,
              13.680000005555701
            ],
            [
              79.42079999118079,
              13.680000004713968
            ],
            [
              79.42079999076121,
              13.680000003826834
            ],
            [
              79.4207999904306,
              13.680000002902846
            ],
            [
              79.42079999019215,
              13.680000001950903
            ],
            [
              79.42079999004815,
              13.68000000098017
            ],
            [
              79.42079999,
              13.68
            ],
            [
              79.42079999,
              13.67
            ],
            [
              79.42079999004815,
              13.66999999901983
            ],
            [
              79.42079999019215,
              13.669999998049096
            ],
            [
              79.4207999904306,
              13.669999997097154
            ],
            [
              79.42079999076121,
              13.669999996173166
            ],
            [
              79.42079999118079,
              13.669999995286032
            ],
            [
              79.4207999916853,
              13.669999994444298
            ],
            [
              79.42079999226989,
              13.669999993656067
            ],
            [
              79.42079999292893,
              13.669999992928933
            ],
            [
              79.42079999365606,
              13.669999992269895
            ],
            [
              79.4207999944443,
              13.669999991685303
            ],
            [
              79.42079999528603,
              13.669999991180788
            ],
            [
              79.42079999617316,
              13.669999990761205
            ],
            [
              79.42079999709715,
              13.669999990430597
            ],
            [
              79.42079999804909,
              13.669999990192148
            ],
            [
              79.42079999901983,
              13.669999990048153
            ],
            [
              79.4208,
              13.669999989999999
            ],
            [
              79.42,
              13.669999989999999
            ],
            [
              79.41999999901984,
              13.669999990048153
            ],
            [
              79.4199999980491,
              13.669999990192148
            ],
            [
              79.41999999709715,
              13.669999990430597
            ],
            [
              79.41999999617316,
              13.669999990761205
            ],
            [
              79.41999999528603,
              13.669999991180788
            ],
            [
              79.4199999944443,
              13.669999991685303
            ],
            [
              79.41999999365606,
              13.669999992269895
            ],
            [
              79.41999999292894,
              13.669999992928933
            ],
            [
              79.4199999922699,
              13.669999993656067
            ],
            [
              79.4199999916853,
              13.669999994444298
            ],
            [
              79.41999999118079,
              13.669999995286032
            ],
            [
              79.41999999076121,
              13.669999996173166
            ],
            [
              79.4199999904306,
              13.669999997097154
            ],
            [
              79.41999999019215,
              13.669999998049096
            ],
            [
              79.41999999004815,
              13.66999999901983
            ],
            [
              79.41999999000001,
              13.67
            ],
            [
              79.41999999000001,
              13.68
            ],
            [
              79.41999999004815,
              13.68000000098017
            ],
            [
              79.41999999019215,
              13.680000001950903
            ]
          ]
        ]
      },
      "properties": {
        "survey_number": "101",
        "owner_name": "Demo record",
        "land_use": "Agricultural"
      }
    },
    {
      "type": "Feature",
      "id": "DEMO-CADASTRAL-parcel-102",
      "geometry": {
        "type": "Polygon",
        "coordinates": [
          [
            [
              79.44000000098016,
              13.680000009951847
            ],
            [
              79.4400000019509,
              13.680000009807852
            ],
            [
              79.44000000290285,
              13.680000009569403
            ],
            [
              79.44000000382684,
              13.680000009238794
            ],
            [
              79.44000000471397,
              13.680000008819212
            ],
            [
              79.4400000055557,
              13.680000008314696
            ],
            [
              79.44000000634394,
              13.680000007730104
            ],
            [
              79.44000000707106,
              13.680000007071067
            ],
            [
              79.4400000077301,
              13.680000006343933
            ],
            [
              79.4400000083147,
              13.680000005555701
            ],
            [
              79.44000000881921,
              13.680000004713968
            ],
            [
              79.44000000923879,
              13.680000003826834
            ],
            [
              79.4400000095694,
              13.680000002902846
            ],
            [
              79.44000000980785,
              13.680000001950903
            ],
            [
              79.44000000995185,
              13.68000000098017
            ],
            [
              79.44000000999999,
              13.68
            ],
            [
              79.44000000999999,
              13.67
            ],
            [
              79.44000000995185,
              13.66999999901983
            ],
            [
              79.44000000980785,
              13.669999998049096
            ],
            [
              79.4400000095694,
              13.669999997097154
            ],
            [
              79.44000000923879,
              13.669999996173166
            ],
            [
              79.44000000881921,
              13.669999995286032
            ],
            [
              79.4400000083147,
              13.669999994444298
            ],
            [
              79.4400000077301,
              13.669999993656067
            ],
            [
              79.44000000707106,
              13.669999992928933
            ],
            [
              79.44000000634394,
              13.669999992269895
            ],
            [
              79.4400000055557,
              13.669999991685303
            ],
            [
              79.44000000471397,
              13.669999991180788
            ],
            [
              79.44000000382684,
              13.669999990761205
            ],
            [
              79.44000000290285,
              13.669999990430597
            ],
            [
              79.4400000019509,
              13.669999990192148
            ],
            [
              79.44000000098016,
              13.669999990048153
            ],
            [
              79.44,
              13.669999989999999
            ],
            [
              79.4308,
              13.669999989999999
            ],
            [
              79.43080000098017,
              13.669999990048153
            ],
            [
              79.43080000195091,
              13.669999990192148
            ],
            [
              79.43080000290286,
              13.669999990430597
            ],
            [
              79.43080000382685,
              13.669999990761205
            ],
            [
              79.43080000471397,
              13.669999991180788
            ],
            [
              79.43080000555571,
              13.669999991685303
            ],
            [
              79.43080000634394,
              13.669999992269895
            ],
            [
              79.43080000707107,
              13.669999992928933
            ],
            [
              79.43080000773011,
              13.669999993656067
            ],
            [
              79.4308000083147,
              13.669999994444298
            ],
            [
              79.43080000881922,
              13.669999995286032
            ],
            [
              79.4308000092388,
              13.669999996173166
            ],
            [
              79.43080000956941,
              13.669999997097154
            ],
            [
              79.43080000980785,
              13.669999998049096
            ],
            [
              79.43080000995185,
              13.66999999901983
            ],
            [
              79.43080001,
              13.67
            ],
            [
              79.43080001,
              13.68
            ],
            [
              79.43080000995185,
              13.68000000098017
            ],
            [
              79.43080000980785,
              13.680000001950903
            ],
            [
              79.43080000956941,
              13.680000002902846
            ],
            [
              79.4308000092388,
              13.680000003826834
            ],
            [
              79.43080000881922,
              13.680000004713968
            ],
            [
              79.4308000083147,
              13.680000005555701
            ],
            [
              79.43080000773011,
              13.680000006343933
            ],
            [
              79.43080000707107,
              13.680000007071067
            ],
            [
              79.43080000634394,
              13.680000007730104
            ],
            [
              79.43080000555571,
              13.680000008314696
            ],
            [
              79.43080000471397,
              13.680000008819212
            ],
            [
              79.43080000382685,
              13.680000009238794
            ],
            [
              79.43080000290286,
              13.680000009569403
            ],
            [
              79.43080000195091,
              13.680000009807852
            ],
            [
              79.43080000098017,
              13.680000009951847
            ],
            [
              79.4308,
              13.68000001
            ],
            [
              79.44,
              13.68000001
            ],
            [
              79.44000000098016,
              13.680000009951847
            ]
          ]
        ]
      },
      "properties": {
        "survey_number": "102",
        "owner_name": "Demo record",
        "land_use": "Residential"
      }
    },
    {
      "type": "Feature",
      "id": "DEMO-DRONE-parcel-101",
      "geometry": {
        "type": "Polygon",
        "coordinates": [
          [
            [
              79.42079999004815,
              13.68000000098017
            ],
            [
              79.42079999019215,
              13.680000001950903
            ],
            [
              79.4207999904306,
              13.680000002902846
            ],
            [
              79.42079999076121,
              13.680000003826834
            ],
            [
              79.42079999118079,
              13.680000004713968
            ],
            [
              79.4207999916853,
              13.680000005555701
            ],
            [
              79.42079999226989,
              13.680000006343933
            ],
            [
              79.42079999292893,
              13.680000007071067
            ],
            [
              79.42079999365606,
              13.680000007730104
            ],
            [
              79.4207999944443,
              13.680000008314696
            ],
            [
              79.42079999528603,
              13.680000008819212
            ],
            [
              79.42079999617316,
              13.680000009238794
            ],
            [
              79.42079999709715,
              13.680000009569403
            ],
            [
              79.42079999804909,
              13.680000009807852
            ],
            [
              79.42079999901983,
              13.680000009951847
            ],
            [
              79.4208,
              13.68000001
            ],
            [
              79.4308,
              13.68000001
            ],
            [
              79.43080000098017,
              13.680000009951847
            ],
            [
              79.43080000195091,
              13.680000009807852
            ],
            [
              79.43080000290286,
              13.680000009569403
            ],
            [
              79.43080000382685,
              13.680000009238794
            ],
            [
              79.43080000471397,
              13.680000008819212
            ],
            [
              79.43080000555571,
              13.680000008314696
            ],
            [
              79.43080000634394,
              13.680000007730104
            ],
            [
              79.43080000707107,
              13.680000007071067
            ],
            [
              79.43080000773011,
              13.680000006343933
            ],
            [
              79.4308000083147,
              13.680000005555701
            ],
            [
              79.43080000881922,
              13.680000004713968
            ],
            [
              79.4308000092388,
              13.680000003826834
            ],
            [
              79.43080000956941,
              13.680000002902846
            ],
            [
              79.43080000980785,
              13.680000001950903
            ],
            [
              79.43080000995185,
              13.68000000098017
            ],
            [
              79.43080001,
              13.68
            ],
            [
              79.43080001,
              13.67
            ],
            [
              79.43080000995185,
              13.66999999901983
            ],
            [
              79.43080000980785,
              13.669999998049096
            ],
            [
              79.43080000956941,
              13.669999997097154
            ],
            [
              79.4308000092388,
              13.669999996173166
            ],
            [
              79.43080000881922,
              13.669999995286032
            ],
            [
              79.4308000083147,
              13.669999994444298
            ],
            [
              79.43080000773011,
              13.669999993656067
            ],
            [
              79.43080000707107,
              13.669999992928933
            ],
            [
              79.43080000634394,
              13.669999992269895
            ],
            [
              79.43080000555571,
              13.669999991685303
            ],
            [
              79.43080000471397,
              13.669999991180788
            ],
            [
              79.43080000382685,
              13.669999990761205
            ],
            [
              79.43080000290286,
              13.669999990430597
            ],
            [
              79.43080000195091,
              13.669999990192148
            ],
            [
              79.43080000098017,
              13.669999990048153
            ],
            [
              79.4308,
              13.669999989999999
            ],
            [
              79.4208,
              13.669999989999999
            ],
            [
              79.42079999901983,
              13.669999990048153
            ],
            [
              79.42079999804909,
              13.669999990192148
            ],
            [
              79.42079999709715,
              13.669999990430597
            ],
            [
              79.42079999617316,
              13.669999990761205
            ],
            [
              79.42079999528603,
              13.669999991180788
            ],
            [
              79.4207999944443,
              13.669999991685303
            ],
            [
              79.42079999365606,
              13.669999992269895
            ],
            [
              79.42079999292893,
              13.669999992928933
            ],
            [
              79.42079999226989,
              13.669999993656067
            ],
            [
              79.4207999916853,
              13.669999994444298
            ],
            [
              79.42079999118079,
              13.669999995286032
            ],
            [
              79.42079999076121,
              13.669999996173166
            ],
            [
              79.4207999904306,
              13.669999997097154
            ],
            [
              79.42079999019215,
              13.669999998049096
            ],
            [
              79.42079999004815,
              13.66999999901983
            ],
            [
              79.42079999,
              13.67
            ],
            [
              79.42079999,
              13.68
            ],
            [
              79.42079999004815,
              13.68000000098017
            ]
          ]
        ]
      },
      "properties": {
        "survey_number": "101",
        "owner_name": "Demo record",
        "land_use": "Agricultural"
      }
    },
    {
      "type": "Feature",
      "id": "DEMO-DRONE-parcel-102",
      "geometry": {
        "type": "Polygon",
        "coordinates": [
          [
            [
              79.4408,
              13.68000001
            ],
            [
              79.44080000098016,
              13.680000009951847
            ],
            [
              79.4408000019509,
              13.680000009807852
            ],
            [
              79.44080000290285,
              13.680000009569403
            ],
            [
              79.44080000382684,
              13.680000009238794
            ],
            [
              79.44080000471396,
              13.680000008819212
            ],
            [
              79.4408000055557,
              13.680000008314696
            ],
            [
              79.44080000634393,
              13.680000007730104
            ],
            [
              79.44080000707106,
              13.680000007071067
            ],
            [
              79.4408000077301,
              13.680000006343933
            ],
            [
              79.4408000083147,
              13.680000005555701
            ],
            [
              79.44080000881921,
              13.680000004713968
            ],
            [
              79.44080000923879,
              13.680000003826834
            ],
            [
              79.4408000095694,
              13.680000002902846
            ],
            [
              79.44080000980784,
              13.680000001950903
            ],
            [
              79.44080000995184,
              13.68000000098017
            ],
            [
              79.44080000999999,
              13.68
            ],
            [
              79.44080000999999,
              13.67
            ],
            [
              79.44080000995184,
              13.66999999901983
            ],
            [
              79.44080000980784,
              13.669999998049096
            ],
            [
              79.4408000095694,
              13.669999997097154
            ],
            [
              79.44080000923879,
              13.669999996173166
            ],
            [
              79.44080000881921,
              13.669999995286032
            ],
            [
              79.4408000083147,
              13.669999994444298
            ],
            [
              79.4408000077301,
              13.669999993656067
            ],
            [
              79.44080000707106,
              13.669999992928933
            ],
            [
              79.44080000634393,
              13.669999992269895
            ],
            [
              79.4408000055557,
              13.669999991685303
            ],
            [
              79.44080000471396,
              13.669999991180788
            ],
            [
              79.44080000382684,
              13.669999990761205
            ],
            [
              79.44080000290285,
              13.669999990430597
            ],
            [
              79.4408000019509,
              13.669999990192148
            ],
            [
              79.44080000098016,
              13.669999990048153
            ],
            [
              79.4408,
              13.669999989999999
            ],
            [
              79.4308,
              13.669999989999999
            ],
            [
              79.43080000098017,
              13.669999990048153
            ],
            [
              79.43080000195091,
              13.669999990192148
            ],
            [
              79.43080000290286,
              13.669999990430597
            ],
            [
              79.43080000382685,
              13.669999990761205
            ],
            [
              79.43080000471397,
              13.669999991180788
            ],
            [
              79.43080000555571,
              13.669999991685303
            ],
            [
              79.43080000634394,
              13.669999992269895
            ],
            [
              79.43080000707107,
              13.669999992928933
            ],
            [
              79.43080000773011,
              13.669999993656067
            ],
            [
              79.4308000083147,
              13.669999994444298
            ],
            [
              79.43080000881922,
              13.669999995286032
            ],
            [
              79.4308000092388,
              13.669999996173166
            ],
            [
              79.43080000956941,
              13.669999997097154
            ],
            [
              79.43080000980785,
              13.669999998049096
            ],
            [
              79.43080000995185,
              13.66999999901983
            ],
            [
              79.43080001,
              13.67
            ],
            [
              79.43080001,
              13.68
            ],
            [
              79.43080000995185,
              13.68000000098017
            ],
            [
              79.43080000980785,
              13.680000001950903
            ],
            [
              79.43080000956941,
              13.680000002902846
            ],
            [
              79.4308000092388,
              13.680000003826834
            ],
            [
              79.43080000881922,
              13.680000004713968
            ],
            [
              79.4308000083147,
              13.680000005555701
            ],
            [
              79.43080000773011,
              13.680000006343933
            ],
            [
              79.43080000707107,
              13.680000007071067
            ],
            [
              79.43080000634394,
              13.680000007730104
            ],
            [
              79.43080000555571,
              13.680000008314696
            ],
            [
              79.43080000471397,
              13.680000008819212
            ],
            [
              79.43080000382685,
              13.680000009238794
            ],
            [
              79.43080000290286,
              13.680000009569403
            ],
            [
              79.43080000195091,
              13.680000009807852
            ],
            [
              79.43080000098017,
              13.680000009951847
            ],
            [
              79.4308,
              13.68000001
            ],
            [
              79.4408,
              13.68000001
            ]
          ]
        ]
      },
      "properties": {
        "survey_number": "102",
        "owner_name": "Demo record",
        "land_use": "Residential"
      }
    }
  ]
}